COSMOS 1408 DEB         
1 50032U 82092RU  26203.00825533  .00004241  00000+0  80079-4 0  9998
2 50032  82.5619 191.2785 0016838 124.6786 235.6054 15.47943238260241
COSMOS 1408 DEB         
1 50058U 82092SW  26203.94534745  .00088534  00000+0  35712-3 0  9991
2 50058  82.6059 193.2462 0005084   3.0852 357.0449 15.86080211262994
COSMOS 1408 DEB         
1 50621U 82092ALR 26203.43165529  .00045369  00000+0  34542-3 0  9990
2 50621  82.5635 200.7454 0020252  53.9513 306.3622 15.71779371257154
